NORAD_CAT_ID,OBJECT_NAME,OBJECT_TYPE,EPOCH,MEAN_MOTION,ECCENTRICITY,INCLINATION,RA_OF_ASC_NODE,ARG_OF_PERICENTER,MEAN_ANOMALY,BSTAR,MEAN_MOTION_DOT,MEAN_MOTION_DDOT,TLE_LINE0,TLE_LINE1,TLE_LINE2,SEMIMAJOR_AXIS,PERIOD,APOGEE,PERIGEE,DECAYED
53748.0,STARLINK-4669,PAYLOAD,2023-02-17 23:01:08,15.0883737,0.0001085,53.2168,232.9932,81.3502,278.7613,2.0782e-05,4.3e-07,0.0,0 STARLINK-4669,1 53748U 22107BA  23048.95912289  .00000043  00000-0  20782-4 0  9991,2 53748  53.2168 232.9932 0001085  81.3502 278.7613 15.08837370 25370,6917.888,95.438,540.504,539.003,0.0
53748.0,STARLINK-4669,PAYLOAD,2023-02-18 11:44:13,15.08822267,0.0001122,53.2182,230.6144,82.3555,277.7565,0.0003592,5.431e-05,0.0,0 STARLINK-4669,1 53748U 22107BA  23049.48904977  .00005431  00000-0  35920-3 0  9990,2 53748  53.2182 230.6144 0001122  82.3555 277.7565 15.08822267 25450,6917.935,95.439,540.576,539.023,0.0
53748.0,STARLINK-4669,PAYLOAD,2023-02-18 21:16:31,15.08847184,0.0001004,53.2178,228.8302,78.8695,281.241,0.00014398,2.005e-05,0.0,0 STARLINK-4669,1 53748U 22107BA  23049.88647731  .00002005  00000-0  14398-3 0  9996,2 53748  53.2178 228.8302 0001004  78.8695 281.2410 15.08847184 25515,6917.858,95.437,540.418,539.029,0.0
53748.0,STARLINK-4669,PAYLOAD,2023-02-19 11:35:00,15.08835079,0.0001049,53.2181,226.1542,82.0476,278.0636,0.00015056,2.109e-05,0.0,0 STARLINK-4669,1 53748U 22107BA  23050.48264736  .00002109  00000-0  15056-3 0  9991,2 53748  53.2181 226.1542 0001049  82.0476 278.0636 15.08835079 25603,6917.895,95.438,540.486,539.035,0.0
53748.0,STARLINK-4669,PAYLOAD,2023-02-19 17:56:32,15.08848733,0.0001185,53.2183,224.9667,73.2747,286.8375,2.6539e-05,1.35e-06,0.0,0 STARLINK-4669,1 53748U 22107BA  23050.74760190  .00000135  00000-0  26539-4 0  9991,2 53748  53.2183 224.9667 0001185  73.2747 286.8375 15.08848733 25645,6917.854,95.437,540.538,538.899,0.0
53748.0,STARLINK-4669,PAYLOAD,2023-02-20 05:04:14,15.08845992,0.0001087,53.2181,222.884,83.067,277.0445,0.00014476,2.017e-05,0.0,0 STARLINK-4669,1 53748U 22107BA  23051.21128182  .00002017  00000-0  14476-3 0  9990,2 53748  53.2181 222.8840 0001087  83.0670 277.0445 15.08845992 26496,6917.862,95.437,540.479,538.975,0.0
53748.0,STARLINK-4669,PAYLOAD,2023-02-20 20:58:05,15.08851266,0.0001128,53.2171,219.9094,86.0906,274.0215,0.00011951,1.615e-05,0.0,0 STARLINK-4669,1 53748U 22107BA  23051.87367635  .00001615  00000-0  11951-3 0  9998,2 53748  53.2171 219.9094 0001128  86.0906 274.0215 15.08851266 25812,6917.846,95.437,540.491,538.931,0.0
53748.0,STARLINK-4669,PAYLOAD,2023-02-21 11:16:34,15.08839914,0.0001148,53.2169,217.232,92.003,268.1093,7.2219e-05,8.62e-06,0.0,0 STARLINK-4669,1 53748U 22107BA  23052.46984138  .00000862  00000-0  72219-4 0  9995,2 53748  53.2169 217.2320 0001148  92.0030 268.1093 15.08839914 25903,6917.881,95.438,540.54,538.951,0.0
53748.0,STARLINK-4669,PAYLOAD,2023-02-21 17:38:06,15.08846632,0.0001119,53.2174,216.0418,94.9852,265.1268,8.5757e-05,1.078e-05,0.0,0 STARLINK-4669,1 53748U 22107BA  23052.73479712  .00001078  00000-0  85757-4 0  9993,2 53748  53.2174 216.0418 0001119  94.9852 265.1268 15.08846632 26722,6917.86,95.437,540.499,538.951,0.0
53748.0,STARLINK-4669,PAYLOAD,2023-02-22 11:07:21,15.08838386,0.0001124,53.217,212.7744,91.0208,269.0912,7.0694e-06,-1.75e-06,0.0,0 STARLINK-4669,1 53748U 22107BA  23053.46344136 -.00000175  00000-0  70694-5 0  9998,2 53748  53.2170 212.7744 0001124  91.0208 269.0912 15.08838386 26830,6917.885,95.438,540.528,538.973,0.0
53748.0,STARLINK-4669,PAYLOAD,2023-02-22 19:04:16,15.08845229,0.00012,53.2178,211.2882,91.4328,268.6802,4.602e-05,4.45e-06,0.0,0 STARLINK-4669,1 53748U 22107BA  23053.79463754  .00000445  00000-0  46020-4 0  9996,2 53748  53.2178 211.2882 0001200  91.4328 268.6802 15.08845229 26104,6917.864,95.437,540.56,538.899,0.0
53748.0,STARLINK-4669,PAYLOAD,2023-02-22 20:39:39,15.08845231,0.000125,53.2168,210.9895,89.7856,270.3279,4.3299e-05,4.01e-06,0.0,0 STARLINK-4669,1 53748U 22107BA  23053.86087668  .00000401  00000-0  43299-4 0  9997,2 53748  53.2168 210.9895 0001250  89.7856 270.3279 15.08845231 26891,6917.864,95.437,540.594,538.865,0.0
53748.0,STARLINK-4669,PAYLOAD,2023-02-23 03:01:12,15.08836163,0.0001776,53.2173,209.7983,79.553,280.5662,9.1042e-07,-2.74e-06,0.0,0 STARLINK-4669,1 53748U 22107BA  23054.12584361 -.00000274  00000-0  91042-6 0  9999,2 53748  53.2173 209.7983 0001776  79.5530 280.5662 15.08836163 26152,6917.892,95.438,540.986,538.528,0.0
53748.0,STARLINK-4669,PAYLOAD,2023-02-23 10:58:08,15.08834817,0.0001139,53.2182,208.3145,93.3362,266.7761,-2.8464e-05,-7.41e-06,0.0,0 STARLINK-4669,1 53748U 22107BA  23054.45704297 -.00000741  00000-0 -28464-4 0  9993,2 53748  53.2182 208.3145 0001139  93.3362 266.7761 15.08834817 26988,6917.896,95.438,540.549,538.973,0.0
53748.0,STARLINK-4669,PAYLOAD,2023-02-23 20:30:26,15.08846285,0.0001229,53.2195,206.5301,92.34,267.7733,0.00011656,1.568e-05,0.0,0 STARLINK-4669,1 53748U 22107BA  23054.85447845  .00001568  00000-0  11656-3 0  9990,2 53748  53.2195 206.5301 0001229  92.3400 267.7733 15.08846285 26261,6917.861,95.437,540.576,538.876,0.0
53748.0,STARLINK-4669,PAYLOAD,2023-02-24 02:52:00,15.08831313,0.0001201,53.2183,205.3395,92.6664,267.4466,-5.837e-05,-1.216e-05,0.0,0 STARLINK-4669,1 53748U 22107BA  23055.11944575 -.00001216  00000-0 -58370-4 0  9999,2 53748  53.2183 205.3395 0001201  92.6664 267.4466 15.08831313 26304,6917.907,95.438,540.603,538.941,0.0
53748.0,STARLINK-4669,PAYLOAD,2023-02-24 10:48:55,15.08830253,0.000115,53.2178,203.853,95.1121,265.0002,-1.091e-05,-4.61e-06,0.0,0 STARLINK-4669,1 53748U 22107BA  23055.45064789 -.00000461  00000-0 -10910-4 0  9995,2 53748  53.2178 203.8530 0001150  95.1121 265.0002 15.08830253 27135,6917.91,95.438,540.571,538.98,0.0
53748.0,STARLINK-4669,PAYLOAD,2023-02-24 18:45:51,15.08839445,0.0001232,53.2173,202.366,94.6679,265.4454,5.4053e-05,5.72e-06,0.0,0 STARLINK-4669,1 53748U 22107BA  23055.78184415  .00000572  00000-0  54053-4 0  9997,2 53748  53.2173 202.3660 0001232  94.6679 265.4454 15.08839445 26407,6917.882,95.438,540.599,538.895,0.0
53748.0,STARLINK-4669,PAYLOAD,2023-02-25 09:04:20,15.08828811,0.000203,53.2181,199.6913,81.7214,278.4008,2.8471e-05,1.65e-06,0.0,0 STARLINK-4669,1 53748U 22107BA  23056.37801681  .00000165  00000-0  28471-4 0  9997,2 53748  53.2181 199.6913 0002030  81.7214 278.4008 15.08828811 26497,6917.915,95.438,541.184,538.375,0.0
53748.0,STARLINK-4669,PAYLOAD,2023-02-25 17:01:16,15.08821795,0.0001253,53.2183,198.203,82.8673,277.2462,-9.4615e-05,-1.793e-05,0.0,0 STARLINK-4669,1 53748U 22107BA  23056.70922269 -.00001793  00000-0 -94615-4 0  9993,2 53748  53.2183 198.2030 0001253  82.8673 277.2462 15.08821795 26542,6917.936,95.439,540.668,538.934,0.0
53748.0,STARLINK-4669,PAYLOAD,2023-02-26 02:33:35,15.08830721,0.0001582,53.2182,196.4195,81.7436,278.3735,0.00015774,2.223e-05,0.0,0 STARLINK-4669,1 53748U 22107BA  23057.10666328  .00002223  00000-0  15774-3 0  9994,2 53748  53.2182 196.4195 0001582  81.7436 278.3735 15.08830721 26604,6917.909,95.438,540.868,538.679,0.0
53748.0,STARLINK-4669,PAYLOAD,2023-02-26 08:55:07,15.08846718,0.000108,53.2177,195.2298,83.73,276.3815,0.00054078,8.331e-05,0.0,0 STARLINK-4669,1 53748U 22107BA  23057.37161859  .00008331  00000-0  54078-3 0  9998,2 53748  53.2177 195.2298 0001080  83.7300 276.3815 15.08846718 26648,6917.86,95.437,540.472,538.978,0.0
53748.0,STARLINK-4669,PAYLOAD,2023-02-26 18:27:26,15.08881471,0.0001074,53.2167,193.4458,76.828,283.2832,0.001855,0.00029391,0.0,0 STARLINK-4669,1 53748U 22107BA  23057.76905301  .00029391  00000-0  18550-2 0  9992,2 53748  53.2167 193.4458 0001074  76.8280 283.2832 15.08881471 26706,6917.754,95.435,540.362,538.876,0.0
53748.0,STARLINK-4669,PAYLOAD,2023-02-27 02:24:21,15.08851704,4.33e-05,53.2172,191.9584,136.897,223.2056,-0.00016559,-2.923e-05,0.0,0 STARLINK-4669,1 53748U 22107BA  23058.10024966 -.00002923  00000-0 -16559-3 0  9992,2 53748  53.2172 191.9584 0000433 136.8970 223.2056 15.08851704 26759,6917.845,95.437,540.009,539.41,0.0
53748.0,STARLINK-4669,PAYLOAD,2023-02-27 08:45:54,15.08871617,9.73e-05,53.2165,190.7696,86.9504,273.16,0.00092116,0.00014415,0.0,0 STARLINK-4669,1 53748U 22107BA  23058.36520835  .00014415  00000-0  92116-3 0  9996,2 53748  53.2165 190.7696 0000973  86.9504 273.1600 15.08871617 26797,6917.784,95.436,540.322,538.976,0.0
53748.0,STARLINK-4669,PAYLOAD,2023-02-27 18:18:11,15.08937805,9.74e-05,53.2163,188.9855,86.5018,273.6085,0.0062133,0.00100275,0.0,0 STARLINK-4669,1 53748U 22107BA  23058.76263710  .00100275  00000-0  62133-2 0  9991,2 53748  53.2163 188.9855 0000974  86.5018 273.6085 15.08937805 26859,6917.581,95.431,540.12,538.773,0.0
53748.0,STARLINK-4669,PAYLOAD,2023-02-27 19:53:34,15.08908649,0.0001035,53.2164,188.688,91.2904,268.8207,0.0036916,0.00059067,0.0,0 STARLINK-4669,1 53748U 22107BA  23058.82887655  .00059067  00000-0  36916-2 0  9990,2 53748  53.2164 188.6880 0001035  91.2904 268.8207 15.08908649 27645,6917.671,95.433,540.252,538.82,0.0
53748.0,STARLINK-4669,PAYLOAD,2023-02-28 02:15:08,15.08854391,0.0001466,53.2165,187.4984,72.3783,287.7369,0.00029503,4.412e-05,0.0,0 STARLINK-4669,1 53748U 22107BA  23059.09384278  .00004412  00000-0  29503-3 0  9992,2 53748  53.2165 187.4984 0001466  72.3783 287.7369 15.08854391 26902,6917.836,95.437,540.716,538.687,0.0
53748.0,STARLINK-4669,PAYLOAD,2023-02-28 13:22:49,15.08849903,0.0001077,53.2169,185.417,69.5737,290.5371,0.0012898,0.00020304,0.0,0 STARLINK-4669,1 53748U 22107BA  23059.55752200  .00020304  00000-0  12898-2 0  9993,2 53748  53.2169 185.4170 0001077  69.5737 290.5371 15.08849903 27758,6917.85,95.437,540.46,538.97,0.0
53748.0,STARLINK-4669,PAYLOAD,2023-03-01 11:38:14,15.0881929,0.0001275,53.2174,181.2533,101.8883,258.2252,0.0013865,0.00021834,0.0,0 STARLINK-4669,1 53748U 22107BA  23060.48489460  .00021834  00000-0  13865-2 0  9996,2 53748  53.2174 181.2533 0001275 101.8883 258.2252 15.08819290 27118,6917.944,95.439,540.691,538.927,0.0
